{"type":"FeatureCollection","actualizado":"2026-10-03T10:19Z","fallos":[],"features":[{"type":"Feature","geometry":{"type":"Point","coordinates":[-4.7983,36.5016]},"properties":{"fecha":"2026-09-30T02:58Z","satelite":"VIIRS NOAA-20","confianza":"nominal","frp":0.62,"dia":false}},{"type":"Feature","geometry":{"type":"Point","coordinates":[-4.7947,36.5007]},"properties":{"fecha":"2026-09-30T02:58Z","satelite":"VIIRS NOAA-20","confianza":"nominal","frp":0.62,"dia":false}},{"type":"Feature","geometry":{"type":"Point","coordinates":[-5.0863,36.6422]},"properties":{"fecha":"2026-09-27T13:33Z","satelite":"VIIRS NOAA-20","confianza":"nominal","frp":49.32,"dia":true}},{"type":"Feature","geometry":{"type":"Point","coordinates":[-5.0907,36.6416]},"properties":{"fecha":"2026-09-27T13:33Z","satelite":"VIIRS NOAA-20","confianza":"nominal","frp":33.58,"dia":true}},{"type":"Feature","geometry":{"type":"Point","coordinates":[-5.0869,36.6456]},"properties":{"fecha":"2026-09-27T13:33Z","satelite":"VIIRS NOAA-20","confianza":"nominal","frp":49.32,"dia":true}},{"type":"Feature","geometry":{"type":"Point","coordinates":[-5.0914,36.645]},"properties":{"fecha":"2026-09-27T13:33Z","satelite":"VIIRS NOAA-20","confianza":"nominal","frp":33.58,"dia":true}},{"type":"Feature","geometry":{"type":"Point","coordinates":[-5.0876,36.649]},"properties":{"fecha":"2026-09-27T13:33Z","satelite":"VIIRS NOAA-20","confianza":"nominal","frp":9.08,"dia":true}},{"type":"Feature","geometry":{"type":"Point","coordinates":[-5.0921,36.6484]},"properties":{"fecha":"2026-09-27T13:33Z","satelite":"VIIRS NOAA-20","confianza":"nominal","frp":27.07,"dia":true}},{"type":"Feature","geometry":{"type":"Point","coordinates":[-5.1032,36.6574]},"properties":{"fecha":"2026-09-27T13:33Z","satelite":"VIIRS NOAA-20","confianza":"nominal","frp":5.5,"dia":true}},{"type":"Feature","geometry":{"type":"Point","coordinates":[-5.1038,36.6608]},"properties":{"fecha":"2026-09-27T13:33Z","satelite":"VIIRS NOAA-20","confianza":"nominal","frp":8.53,"dia":true}},{"type":"Feature","geometry":{"type":"Point","coordinates":[-5.1,36.6648]},"properties":{"fecha":"2026-09-27T13:33Z","satelite":"VIIRS NOAA-20","confianza":"nominal","frp":8.3,"dia":true}},{"type":"Feature","geometry":{"type":"Point","coordinates":[-5.1045,36.6642]},"properties":{"fecha":"2026-09-27T13:33Z","satelite":"VIIRS NOAA-20","confianza":"nominal","frp":8.53,"dia":true}},{"type":"Feature","geometry":{"type":"Point","coordinates":[-5.1007,36.6682]},"properties":{"fecha":"2026-09-27T13:33Z","satelite":"VIIRS NOAA-20","confianza":"nominal","frp":20.15,"dia":true}},{"type":"Feature","geometry":{"type":"Point","coordinates":[-5.1052,36.6676]},"properties":{"fecha":"2026-09-27T13:33Z","satelite":"VIIRS NOAA-20","confianza":"nominal","frp":13.23,"dia":true}},{"type":"Feature","geometry":{"type":"Point","coordinates":[-5.1059,36.671]},"properties":{"fecha":"2026-09-27T13:33Z","satelite":"VIIRS NOAA-20","confianza":"nominal","frp":13.23,"dia":true}},{"type":"Feature","geometry":{"type":"Point","coordinates":[-5.0868,36.6408]},"properties":{"fecha":"2026-09-27T13:14Z","satelite":"VIIRS Suomi NPP","confianza":"nominal","frp":81.86,"dia":true}},{"type":"Feature","geometry":{"type":"Point","coordinates":[-5.0825,36.6454]},"properties":{"fecha":"2026-09-27T13:14Z","satelite":"VIIRS Suomi NPP","confianza":"nominal","frp":81.86,"dia":true}},{"type":"Feature","geometry":{"type":"Point","coordinates":[-5.0935,36.6433]},"properties":{"fecha":"2026-09-27T13:14Z","satelite":"VIIRS Suomi NPP","confianza":"nominal","frp":16.96,"dia":true}},{"type":"Feature","geometry":{"type":"Point","coordinates":[-5.0891,36.648]},"properties":{"fecha":"2026-09-27T13:14Z","satelite":"VIIRS Suomi NPP","confianza":"nominal","frp":39.86,"dia":true}},{"type":"Feature","geometry":{"type":"Point","coordinates":[-5.0945,36.6469]},"properties":{"fecha":"2026-09-27T13:14Z","satelite":"VIIRS Suomi NPP","confianza":"nominal","frp":7.59,"dia":true}},{"type":"Feature","geometry":{"type":"Point","coordinates":[-5.1118,36.6475]},"properties":{"fecha":"2026-09-27T13:14Z","satelite":"VIIRS Suomi NPP","confianza":"nominal","frp":4.85,"dia":true}},{"type":"Feature","geometry":{"type":"Point","coordinates":[-5.0989,36.6613]},"properties":{"fecha":"2026-09-27T13:14Z","satelite":"VIIRS Suomi NPP","confianza":"nominal","frp":12.49,"dia":true}},{"type":"Feature","geometry":{"type":"Point","coordinates":[-5.1042,36.6603]},"properties":{"fecha":"2026-09-27T13:14Z","satelite":"VIIRS Suomi NPP","confianza":"nominal","frp":12.49,"dia":true}},{"type":"Feature","geometry":{"type":"Point","coordinates":[-5.1,36.6649]},"properties":{"fecha":"2026-09-27T13:14Z","satelite":"VIIRS Suomi NPP","confianza":"nominal","frp":12.49,"dia":true}},{"type":"Feature","geometry":{"type":"Point","coordinates":[-5.1053,36.6639]},"properties":{"fecha":"2026-09-27T13:14Z","satelite":"VIIRS Suomi NPP","confianza":"nominal","frp":12.49,"dia":true}},{"type":"Feature","geometry":{"type":"Point","coordinates":[-5.1011,36.6685]},"properties":{"fecha":"2026-09-27T13:14Z","satelite":"VIIRS Suomi NPP","confianza":"nominal","frp":41.33,"dia":true}},{"type":"Feature","geometry":{"type":"Point","coordinates":[-5.1064,36.6675]},"properties":{"fecha":"2026-09-27T13:14Z","satelite":"VIIRS Suomi NPP","confianza":"nominal","frp":41.33,"dia":true}},{"type":"Feature","geometry":{"type":"Point","coordinates":[-5.1022,36.672]},"properties":{"fecha":"2026-09-27T13:14Z","satelite":"VIIRS Suomi NPP","confianza":"nominal","frp":41.33,"dia":true}},{"type":"Feature","geometry":{"type":"Point","coordinates":[-5.1075,36.6711]},"properties":{"fecha":"2026-09-27T13:14Z","satelite":"VIIRS Suomi NPP","confianza":"nominal","frp":41.33,"dia":true}},{"type":"Feature","geometry":{"type":"Point","coordinates":[-5.1024,36.6644]},"properties":{"fecha":"2026-09-27T13:14Z","satelite":"VIIRS Suomi NPP","confianza":"nominal","frp":44.25,"dia":true}},{"type":"Feature","geometry":{"type":"Point","coordinates":[-5.1077,36.6634]},"properties":{"fecha":"2026-09-27T13:14Z","satelite":"VIIRS Suomi NPP","confianza":"nominal","frp":7.4,"dia":true}},{"type":"Feature","geometry":{"type":"Point","coordinates":[-5.0981,36.669]},"properties":{"fecha":"2026-09-27T13:14Z","satelite":"VIIRS Suomi NPP","confianza":"nominal","frp":44.25,"dia":true}},{"type":"Feature","geometry":{"type":"Point","coordinates":[-5.1035,36.668]},"properties":{"fecha":"2026-09-27T13:14Z","satelite":"VIIRS Suomi NPP","confianza":"nominal","frp":44.25,"dia":true}},{"type":"Feature","geometry":{"type":"Point","coordinates":[-5.1088,36.6669]},"properties":{"fecha":"2026-09-27T13:14Z","satelite":"VIIRS Suomi NPP","confianza":"nominal","frp":7.4,"dia":true}},{"type":"Feature","geometry":{"type":"Point","coordinates":[-5.1046,36.6716]},"properties":{"fecha":"2026-09-27T13:14Z","satelite":"VIIRS Suomi NPP","confianza":"nominal","frp":63.62,"dia":true}},{"type":"Feature","geometry":{"type":"Point","coordinates":[-5.0894,36.6448]},"properties":{"fecha":"2026-09-27T12:38Z","satelite":"VIIRS NOAA-21","confianza":"alta","frp":15.42,"dia":true}},{"type":"Feature","geometry":{"type":"Point","coordinates":[-5.0914,36.6451]},"properties":{"fecha":"2026-09-27T12:38Z","satelite":"VIIRS NOAA-21","confianza":"alta","frp":13.33,"dia":true}},{"type":"Feature","geometry":{"type":"Point","coordinates":[-5.112,36.6452]},"properties":{"fecha":"2026-09-27T12:38Z","satelite":"VIIRS NOAA-21","confianza":"nominal","frp":3.98,"dia":true}},{"type":"Feature","geometry":{"type":"Point","coordinates":[-5.1008,36.6585]},"properties":{"fecha":"2026-09-27T12:38Z","satelite":"VIIRS NOAA-21","confianza":"alta","frp":62.46,"dia":true}},{"type":"Feature","geometry":{"type":"Point","coordinates":[-5.1046,36.6576]},"properties":{"fecha":"2026-09-27T12:38Z","satelite":"VIIRS NOAA-21","confianza":"alta","frp":37.0,"dia":true}},{"type":"Feature","geometry":{"type":"Point","coordinates":[-5.1085,36.6566]},"properties":{"fecha":"2026-09-27T12:38Z","satelite":"VIIRS NOAA-21","confianza":"nominal","frp":37.0,"dia":true}},{"type":"Feature","geometry":{"type":"Point","coordinates":[-5.1127,36.6556]},"properties":{"fecha":"2026-09-27T12:38Z","satelite":"VIIRS NOAA-21","confianza":"nominal","frp":5.44,"dia":true}},{"type":"Feature","geometry":{"type":"Point","coordinates":[-5.1028,36.6633]},"properties":{"fecha":"2026-09-27T12:38Z","satelite":"VIIRS NOAA-21","confianza":"alta","frp":62.46,"dia":true}},{"type":"Feature","geometry":{"type":"Point","coordinates":[-5.1101,36.6615]},"properties":{"fecha":"2026-09-27T12:38Z","satelite":"VIIRS NOAA-21","confianza":"nominal","frp":37.0,"dia":true}},{"type":"Feature","geometry":{"type":"Point","coordinates":[-5.1141,36.6605]},"properties":{"fecha":"2026-09-27T12:38Z","satelite":"VIIRS NOAA-21","confianza":"nominal","frp":5.44,"dia":true}},{"type":"Feature","geometry":{"type":"Point","coordinates":[-5.1047,36.6681]},"properties":{"fecha":"2026-09-27T12:38Z","satelite":"VIIRS NOAA-21","confianza":"alta","frp":140.24,"dia":true}},{"type":"Feature","geometry":{"type":"Point","coordinates":[-5.1083,36.6672]},"properties":{"fecha":"2026-09-27T12:38Z","satelite":"VIIRS NOAA-21","confianza":"baja","frp":92.33,"dia":true}},{"type":"Feature","geometry":{"type":"Point","coordinates":[-5.1193,36.6619]},"properties":{"fecha":"2026-09-27T09:52Z","satelite":"MODIS","confianza":"nominal","frp":28.98,"dia":true}},{"type":"Feature","geometry":{"type":"Point","coordinates":[-5.0983,36.6576]},"properties":{"fecha":"2026-09-27T09:52Z","satelite":"MODIS","confianza":"alta","frp":140.67,"dia":true}},{"type":"Feature","geometry":{"type":"Point","coordinates":[-5.1219,36.6496]},"properties":{"fecha":"2026-09-27T09:52Z","satelite":"MODIS","confianza":"nominal","frp":47.19,"dia":true}},{"type":"Feature","geometry":{"type":"Point","coordinates":[-5.1022,36.6454]},"properties":{"fecha":"2026-09-27T09:52Z","satelite":"MODIS","confianza":"alta","frp":412.19,"dia":true}},{"type":"Feature","geometry":{"type":"Point","coordinates":[-5.1128,36.6449]},"properties":{"fecha":"2026-09-27T04:04Z","satelite":"MODIS","confianza":"baja","frp":26.2,"dia":false}},{"type":"Feature","geometry":{"type":"Point","coordinates":[-5.1158,36.6339]},"properties":{"fecha":"2026-09-27T04:04Z","satelite":"MODIS","confianza":"nominal","frp":20.93,"dia":false}},{"type":"Feature","geometry":{"type":"Point","coordinates":[-5.1004,36.6435]},"properties":{"fecha":"2026-09-27T04:04Z","satelite":"MODIS","confianza":"nominal","frp":21.26,"dia":false}},{"type":"Feature","geometry":{"type":"Point","coordinates":[-5.1034,36.6325]},"properties":{"fecha":"2026-09-27T04:04Z","satelite":"MODIS","confianza":"baja","frp":27.0,"dia":false}},{"type":"Feature","geometry":{"type":"Point","coordinates":[-5.0906,36.6381]},"properties":{"fecha":"2026-09-27T03:34Z","satelite":"VIIRS Suomi NPP","confianza":"nominal","frp":6.11,"dia":false}},{"type":"Feature","geometry":{"type":"Point","coordinates":[-5.1174,36.6468]},"properties":{"fecha":"2026-09-27T03:34Z","satelite":"VIIRS Suomi NPP","confianza":"nominal","frp":0.94,"dia":false}},{"type":"Feature","geometry":{"type":"Point","coordinates":[-5.1119,36.6451]},"properties":{"fecha":"2026-09-27T03:34Z","satelite":"VIIRS Suomi NPP","confianza":"nominal","frp":0.94,"dia":false}},{"type":"Feature","geometry":{"type":"Point","coordinates":[-5.0968,36.6401]},"properties":{"fecha":"2026-09-27T03:34Z","satelite":"VIIRS Suomi NPP","confianza":"nominal","frp":6.91,"dia":false}},{"type":"Feature","geometry":{"type":"Point","coordinates":[-5.1127,36.6375]},"properties":{"fecha":"2026-09-27T03:34Z","satelite":"VIIRS Suomi NPP","confianza":"nominal","frp":4.72,"dia":false}},{"type":"Feature","geometry":{"type":"Point","coordinates":[-5.1192,36.6396]},"properties":{"fecha":"2026-09-27T03:34Z","satelite":"VIIRS Suomi NPP","confianza":"nominal","frp":4.72,"dia":false}},{"type":"Feature","geometry":{"type":"Point","coordinates":[-5.1057,36.6352]},"properties":{"fecha":"2026-09-27T03:34Z","satelite":"VIIRS Suomi NPP","confianza":"nominal","frp":5.36,"dia":false}},{"type":"Feature","geometry":{"type":"Point","coordinates":[-5.099,36.633]},"properties":{"fecha":"2026-09-27T03:34Z","satelite":"VIIRS Suomi NPP","confianza":"nominal","frp":5.36,"dia":false}},{"type":"Feature","geometry":{"type":"Point","coordinates":[-5.0928,36.631]},"properties":{"fecha":"2026-09-27T03:34Z","satelite":"VIIRS Suomi NPP","confianza":"nominal","frp":3.15,"dia":false}},{"type":"Feature","geometry":{"type":"Point","coordinates":[-5.1139,36.6301]},"properties":{"fecha":"2026-09-27T03:34Z","satelite":"VIIRS Suomi NPP","confianza":"nominal","frp":4.72,"dia":false}},{"type":"Feature","geometry":{"type":"Point","coordinates":[-5.102,36.6504]},"properties":{"fecha":"2026-09-27T02:13Z","satelite":"VIIRS NOAA-20","confianza":"nominal","frp":3.15,"dia":false}},{"type":"Feature","geometry":{"type":"Point","coordinates":[-5.0977,36.6497]},"properties":{"fecha":"2026-09-27T02:13Z","satelite":"VIIRS NOAA-20","confianza":"nominal","frp":8.21,"dia":false}},{"type":"Feature","geometry":{"type":"Point","coordinates":[-5.1028,36.6471]},"properties":{"fecha":"2026-09-27T02:13Z","satelite":"VIIRS NOAA-20","confianza":"nominal","frp":3.15,"dia":false}},{"type":"Feature","geometry":{"type":"Point","coordinates":[-5.0985,36.6464]},"properties":{"fecha":"2026-09-27T02:13Z","satelite":"VIIRS NOAA-20","confianza":"nominal","frp":8.21,"dia":false}},{"type":"Feature","geometry":{"type":"Point","coordinates":[-5.0942,36.6458]},"properties":{"fecha":"2026-09-27T02:13Z","satelite":"VIIRS NOAA-20","confianza":"nominal","frp":8.21,"dia":false}},{"type":"Feature","geometry":{"type":"Point","coordinates":[-5.0898,36.6451]},"properties":{"fecha":"2026-09-27T02:13Z","satelite":"VIIRS NOAA-20","confianza":"nominal","frp":0.3,"dia":false}},{"type":"Feature","geometry":{"type":"Point","coordinates":[-5.0993,36.6431]},"properties":{"fecha":"2026-09-27T02:13Z","satelite":"VIIRS NOAA-20","confianza":"nominal","frp":1.34,"dia":false}},{"type":"Feature","geometry":{"type":"Point","coordinates":[-5.1167,36.6457]},"properties":{"fecha":"2026-09-27T02:13Z","satelite":"VIIRS NOAA-20","confianza":"nominal","frp":1.37,"dia":false}},{"type":"Feature","geometry":{"type":"Point","coordinates":[-5.1036,36.6438]},"properties":{"fecha":"2026-09-27T02:13Z","satelite":"VIIRS NOAA-20","confianza":"nominal","frp":0.75,"dia":false}},{"type":"Feature","geometry":{"type":"Point","coordinates":[-5.0949,36.6425]},"properties":{"fecha":"2026-09-27T02:13Z","satelite":"VIIRS NOAA-20","confianza":"nominal","frp":1.34,"dia":false}},{"type":"Feature","geometry":{"type":"Point","coordinates":[-5.0906,36.6418]},"properties":{"fecha":"2026-09-27T02:13Z","satelite":"VIIRS NOAA-20","confianza":"nominal","frp":1.38,"dia":false}},{"type":"Feature","geometry":{"type":"Point","coordinates":[-5.1175,36.6424]},"properties":{"fecha":"2026-09-27T02:13Z","satelite":"VIIRS NOAA-20","confianza":"nominal","frp":1.37,"dia":false}},{"type":"Feature","geometry":{"type":"Point","coordinates":[-5.0914,36.6385]},"properties":{"fecha":"2026-09-27T02:13Z","satelite":"VIIRS NOAA-20","confianza":"nominal","frp":1.38,"dia":false}},{"type":"Feature","geometry":{"type":"Point","coordinates":[-5.1131,36.6418]},"properties":{"fecha":"2026-09-27T02:13Z","satelite":"VIIRS NOAA-20","confianza":"nominal","frp":1.37,"dia":false}},{"type":"Feature","geometry":{"type":"Point","coordinates":[-5.1001,36.6398]},"properties":{"fecha":"2026-09-27T02:13Z","satelite":"VIIRS NOAA-20","confianza":"nominal","frp":1.34,"dia":false}},{"type":"Feature","geometry":{"type":"Point","coordinates":[-5.0958,36.6392]},"properties":{"fecha":"2026-09-27T02:13Z","satelite":"VIIRS NOAA-20","confianza":"nominal","frp":1.34,"dia":false}},{"type":"Feature","geometry":{"type":"Point","coordinates":[-5.1139,36.6385]},"properties":{"fecha":"2026-09-27T02:13Z","satelite":"VIIRS NOAA-20","confianza":"nominal","frp":3.47,"dia":false}},{"type":"Feature","geometry":{"type":"Point","coordinates":[-5.1096,36.6378]},"properties":{"fecha":"2026-09-27T02:13Z","satelite":"VIIRS NOAA-20","confianza":"nominal","frp":1.91,"dia":false}},{"type":"Feature","geometry":{"type":"Point","coordinates":[-5.0966,36.6359]},"properties":{"fecha":"2026-09-27T02:13Z","satelite":"VIIRS NOAA-20","confianza":"nominal","frp":5.12,"dia":false}},{"type":"Feature","geometry":{"type":"Point","coordinates":[-5.1183,36.6391]},"properties":{"fecha":"2026-09-27T02:13Z","satelite":"VIIRS NOAA-20","confianza":"nominal","frp":3.47,"dia":false}},{"type":"Feature","geometry":{"type":"Point","coordinates":[-5.1052,36.6372]},"properties":{"fecha":"2026-09-27T02:13Z","satelite":"VIIRS NOAA-20","confianza":"nominal","frp":1.91,"dia":false}},{"type":"Feature","geometry":{"type":"Point","coordinates":[-5.1009,36.6365]},"properties":{"fecha":"2026-09-27T02:13Z","satelite":"VIIRS NOAA-20","confianza":"nominal","frp":5.12,"dia":false}},{"type":"Feature","geometry":{"type":"Point","coordinates":[-5.1017,36.6332]},"properties":{"fecha":"2026-09-27T02:13Z","satelite":"VIIRS NOAA-20","confianza":"nominal","frp":5.12,"dia":false}},{"type":"Feature","geometry":{"type":"Point","coordinates":[-5.1148,36.6352]},"properties":{"fecha":"2026-09-27T02:13Z","satelite":"VIIRS NOAA-20","confianza":"nominal","frp":3.47,"dia":false}},{"type":"Feature","geometry":{"type":"Point","coordinates":[-5.1104,36.6345]},"properties":{"fecha":"2026-09-27T02:13Z","satelite":"VIIRS NOAA-20","confianza":"nominal","frp":1.91,"dia":false}},{"type":"Feature","geometry":{"type":"Point","coordinates":[-5.106,36.6339]},"properties":{"fecha":"2026-09-27T02:13Z","satelite":"VIIRS NOAA-20","confianza":"nominal","frp":1.91,"dia":false}},{"type":"Feature","geometry":{"type":"Point","coordinates":[-5.0973,36.6326]},"properties":{"fecha":"2026-09-27T02:13Z","satelite":"VIIRS NOAA-20","confianza":"nominal","frp":5.12,"dia":false}},{"type":"Feature","geometry":{"type":"Point","coordinates":[-5.1025,36.63]},"properties":{"fecha":"2026-09-27T02:13Z","satelite":"VIIRS NOAA-20","confianza":"nominal","frp":1.57,"dia":false}},{"type":"Feature","geometry":{"type":"Point","coordinates":[-5.0994,36.6508]},"properties":{"fecha":"2026-09-27T01:54Z","satelite":"VIIRS Suomi NPP","confianza":"nominal","frp":5.21,"dia":false}},{"type":"Feature","geometry":{"type":"Point","coordinates":[-5.1,36.6464]},"properties":{"fecha":"2026-09-27T01:54Z","satelite":"VIIRS Suomi NPP","confianza":"nominal","frp":5.21,"dia":false}},{"type":"Feature","geometry":{"type":"Point","coordinates":[-5.1053,36.6469]},"properties":{"fecha":"2026-09-27T01:54Z","satelite":"VIIRS Suomi NPP","confianza":"nominal","frp":5.21,"dia":false}},{"type":"Feature","geometry":{"type":"Point","coordinates":[-5.0948,36.6459]},"properties":{"fecha":"2026-09-27T01:54Z","satelite":"VIIRS Suomi NPP","confianza":"nominal","frp":2.09,"dia":false}},{"type":"Feature","geometry":{"type":"Point","coordinates":[-5.0892,36.6454]},"properties":{"fecha":"2026-09-27T01:54Z","satelite":"VIIRS Suomi NPP","confianza":"nominal","frp":2.09,"dia":false}},{"type":"Feature","geometry":{"type":"Point","coordinates":[-5.1188,36.6437]},"properties":{"fecha":"2026-09-27T01:54Z","satelite":"VIIRS Suomi NPP","confianza":"nominal","frp":1.97,"dia":false}},{"type":"Feature","geometry":{"type":"Point","coordinates":[-5.1124,36.6431]},"properties":{"fecha":"2026-09-27T01:54Z","satelite":"VIIRS Suomi NPP","confianza":"nominal","frp":1.97,"dia":false}},{"type":"Feature","geometry":{"type":"Point","coordinates":[-5.1011,36.6421]},"properties":{"fecha":"2026-09-27T01:54Z","satelite":"VIIRS Suomi NPP","confianza":"nominal","frp":2.63,"dia":false}},{"type":"Feature","geometry":{"type":"Point","coordinates":[-5.0958,36.6416]},"properties":{"fecha":"2026-09-27T01:54Z","satelite":"VIIRS Suomi NPP","confianza":"nominal","frp":1.85,"dia":false}},{"type":"Feature","geometry":{"type":"Point","coordinates":[-5.09,36.6411]},"properties":{"fecha":"2026-09-27T01:54Z","satelite":"VIIRS Suomi NPP","confianza":"nominal","frp":1.85,"dia":false}},{"type":"Feature","geometry":{"type":"Point","coordinates":[-5.1138,36.6388]},"properties":{"fecha":"2026-09-27T01:54Z","satelite":"VIIRS Suomi NPP","confianza":"nominal","frp":1.97,"dia":false}},{"type":"Feature","geometry":{"type":"Point","coordinates":[-5.1081,36.6383]},"properties":{"fecha":"2026-09-27T01:54Z","satelite":"VIIRS Suomi NPP","confianza":"nominal","frp":2.63,"dia":false}},{"type":"Feature","geometry":{"type":"Point","coordinates":[-5.1197,36.6394]},"properties":{"fecha":"2026-09-27T01:54Z","satelite":"VIIRS Suomi NPP","confianza":"nominal","frp":1.97,"dia":false}},{"type":"Feature","geometry":{"type":"Point","coordinates":[-5.1025,36.6378]},"properties":{"fecha":"2026-09-27T01:54Z","satelite":"VIIRS Suomi NPP","confianza":"nominal","frp":2.63,"dia":false}},{"type":"Feature","geometry":{"type":"Point","coordinates":[-5.0971,36.6373]},"properties":{"fecha":"2026-09-27T01:54Z","satelite":"VIIRS Suomi NPP","confianza":"nominal","frp":1.85,"dia":false}},{"type":"Feature","geometry":{"type":"Point","coordinates":[-5.0908,36.6367]},"properties":{"fecha":"2026-09-27T01:54Z","satelite":"VIIRS Suomi NPP","confianza":"nominal","frp":1.85,"dia":false}},{"type":"Feature","geometry":{"type":"Point","coordinates":[-5.1092,36.634]},"properties":{"fecha":"2026-09-27T01:54Z","satelite":"VIIRS Suomi NPP","confianza":"nominal","frp":12.05,"dia":false}},{"type":"Feature","geometry":{"type":"Point","coordinates":[-5.1034,36.6335]},"properties":{"fecha":"2026-09-27T01:54Z","satelite":"VIIRS Suomi NPP","confianza":"nominal","frp":12.05,"dia":false}},{"type":"Feature","geometry":{"type":"Point","coordinates":[-5.0977,36.633]},"properties":{"fecha":"2026-09-27T01:54Z","satelite":"VIIRS Suomi NPP","confianza":"nominal","frp":6.38,"dia":false}},{"type":"Feature","geometry":{"type":"Point","coordinates":[-5.115,36.6345]},"properties":{"fecha":"2026-09-27T01:54Z","satelite":"VIIRS Suomi NPP","confianza":"nominal","frp":3.91,"dia":false}},{"type":"Feature","geometry":{"type":"Point","coordinates":[-5.0916,36.6324]},"properties":{"fecha":"2026-09-27T01:54Z","satelite":"VIIRS Suomi NPP","confianza":"nominal","frp":6.38,"dia":false}},{"type":"Feature","geometry":{"type":"Point","coordinates":[-5.1043,36.6291]},"properties":{"fecha":"2026-09-27T01:54Z","satelite":"VIIRS Suomi NPP","confianza":"nominal","frp":12.05,"dia":false}},{"type":"Feature","geometry":{"type":"Point","coordinates":[-5.0987,36.6286]},"properties":{"fecha":"2026-09-27T01:54Z","satelite":"VIIRS Suomi NPP","confianza":"nominal","frp":6.38,"dia":false}},{"type":"Feature","geometry":{"type":"Point","coordinates":[-5.1152,36.6435]},"properties":{"fecha":"2026-09-27T01:54Z","satelite":"VIIRS Suomi NPP","confianza":"nominal","frp":3.03,"dia":false}},{"type":"Feature","geometry":{"type":"Point","coordinates":[-5.1036,36.6423]},"properties":{"fecha":"2026-09-27T01:54Z","satelite":"VIIRS Suomi NPP","confianza":"nominal","frp":1.83,"dia":false}},{"type":"Feature","geometry":{"type":"Point","coordinates":[-5.0983,36.6418]},"properties":{"fecha":"2026-09-27T01:54Z","satelite":"VIIRS Suomi NPP","confianza":"nominal","frp":1.83,"dia":false}},{"type":"Feature","geometry":{"type":"Point","coordinates":[-5.0927,36.6413]},"properties":{"fecha":"2026-09-27T01:54Z","satelite":"VIIRS Suomi NPP","confianza":"nominal","frp":2.38,"dia":false}},{"type":"Feature","geometry":{"type":"Point","coordinates":[-5.1106,36.6386]},"properties":{"fecha":"2026-09-27T01:54Z","satelite":"VIIRS Suomi NPP","confianza":"nominal","frp":3.03,"dia":false}},{"type":"Feature","geometry":{"type":"Point","coordinates":[-5.0937,36.6369]},"properties":{"fecha":"2026-09-27T01:54Z","satelite":"VIIRS Suomi NPP","confianza":"nominal","frp":2.38,"dia":false}},{"type":"Feature","geometry":{"type":"Point","coordinates":[-5.1165,36.6392]},"properties":{"fecha":"2026-09-27T01:54Z","satelite":"VIIRS Suomi NPP","confianza":"nominal","frp":3.03,"dia":false}},{"type":"Feature","geometry":{"type":"Point","coordinates":[-5.105,36.638]},"properties":{"fecha":"2026-09-27T01:54Z","satelite":"VIIRS Suomi NPP","confianza":"nominal","frp":1.83,"dia":false}},{"type":"Feature","geometry":{"type":"Point","coordinates":[-5.0996,36.6375]},"properties":{"fecha":"2026-09-27T01:54Z","satelite":"VIIRS Suomi NPP","confianza":"nominal","frp":1.83,"dia":false}},{"type":"Feature","geometry":{"type":"Point","coordinates":[-5.1118,36.6343]},"properties":{"fecha":"2026-09-27T01:54Z","satelite":"VIIRS Suomi NPP","confianza":"nominal","frp":3.58,"dia":false}},{"type":"Feature","geometry":{"type":"Point","coordinates":[-5.106,36.6337]},"properties":{"fecha":"2026-09-27T01:54Z","satelite":"VIIRS Suomi NPP","confianza":"nominal","frp":11.04,"dia":false}},{"type":"Feature","geometry":{"type":"Point","coordinates":[-5.1003,36.6332]},"properties":{"fecha":"2026-09-27T01:54Z","satelite":"VIIRS Suomi NPP","confianza":"nominal","frp":11.04,"dia":false}},{"type":"Feature","geometry":{"type":"Point","coordinates":[-5.0945,36.6326]},"properties":{"fecha":"2026-09-27T01:54Z","satelite":"VIIRS Suomi NPP","confianza":"nominal","frp":4.2,"dia":false}},{"type":"Feature","geometry":{"type":"Point","coordinates":[-5.1176,36.6348]},"properties":{"fecha":"2026-09-27T01:54Z","satelite":"VIIRS Suomi NPP","confianza":"nominal","frp":3.58,"dia":false}},{"type":"Feature","geometry":{"type":"Point","coordinates":[-5.1071,36.6294]},"properties":{"fecha":"2026-09-27T01:54Z","satelite":"VIIRS Suomi NPP","confianza":"nominal","frp":11.04,"dia":false}},{"type":"Feature","geometry":{"type":"Point","coordinates":[-5.1012,36.6288]},"properties":{"fecha":"2026-09-27T01:54Z","satelite":"VIIRS Suomi NPP","confianza":"nominal","frp":11.04,"dia":false}},{"type":"Feature","geometry":{"type":"Point","coordinates":[-5.108,36.6457]},"properties":{"fecha":"2026-09-27T01:17Z","satelite":"VIIRS NOAA-21","confianza":"nominal","frp":12.89,"dia":false}},{"type":"Feature","geometry":{"type":"Point","coordinates":[-5.1016,36.6454]},"properties":{"fecha":"2026-09-27T01:17Z","satelite":"VIIRS NOAA-21","confianza":"nominal","frp":12.89,"dia":false}},{"type":"Feature","geometry":{"type":"Point","coordinates":[-5.0958,36.6452]},"properties":{"fecha":"2026-09-27T01:17Z","satelite":"VIIRS NOAA-21","confianza":"nominal","frp":14.46,"dia":false}},{"type":"Feature","geometry":{"type":"Point","coordinates":[-5.0986,36.6331]},"properties":{"fecha":"2026-09-27T01:17Z","satelite":"VIIRS NOAA-21","confianza":"nominal","frp":7.79,"dia":false}}]}