{"type": "FeatureCollection", "features": [{"type": "Feature", "properties": {"tipo": "ruta"}, "geometry": {"type": "LineString", "coordinates": [[-4.885174, 36.512314], [-4.885186, 36.512181], [-4.885275, 36.511543], [-4.884884, 36.511548], [-4.884771, 36.511294], [-4.884609, 36.511324], [-4.884576, 36.511265], [-4.88455, 36.511274], [-4.883984, 36.511462], [-4.883994, 36.511483], [-4.884556, 36.511296], [-4.884581, 36.511287], [-4.884608, 36.511347], [-4.884809, 36.511292], [-4.884829, 36.511248], [-4.885333, 36.511122], [-4.885356, 36.511009], [-4.885389, 36.51098], [-4.88533, 36.510875], [-4.885398, 36.510825], [-4.885323, 36.510605], [-4.885377, 36.510601], [-4.885311, 36.510314], [-4.885255, 36.510273], [-4.885205, 36.510098], [-4.885126, 36.510079], [-4.88476, 36.510152], [-4.884714, 36.510215], [-4.88473, 36.510267], [-4.88427, 36.510397], [-4.884205, 36.510255], [-4.884165, 36.510028], [-4.88361, 36.51019], [-4.883497, 36.510259], [-4.883159, 36.510344], [-4.883162, 36.510107], [-4.882808, 36.510086], [-4.882778, 36.509989], [-4.88308, 36.509777], [-4.883212, 36.509744], [-4.883217, 36.509893], [-4.88319, 36.509901], [-4.88322, 36.510061], [-4.883652, 36.509982], [-4.883798, 36.509988], [-4.884207, 36.5098], [-4.884236, 36.50981], [-4.884277, 36.509633], [-4.884302, 36.509626], [-4.884123, 36.509008], [-4.88473, 36.508959], [-4.884754, 36.509315], [-4.885134, 36.509298], [-4.885579, 36.509409], [-4.88567, 36.50914], [-4.885731, 36.509035], [-4.886181, 36.50917], [-4.886175, 36.509088], [-4.886241, 36.509017], [-4.886258, 36.508999]]}}, {"type": "Feature", "properties": {"tipo": "poi", "nombre": "Ermita del Santo Cristo de la Vera Cruz", "no_accesible": true}, "geometry": {"type": "Point", "coordinates": [-4.885146, 36.51241]}}, {"type": "Feature", "properties": {"tipo": "poi", "nombre": "Castillo de Marbella · Alcazaba y Muralla", "no_accesible": false}, "geometry": {"type": "Point", "coordinates": [-4.884497, 36.511321]}}, {"type": "Feature", "properties": {"tipo": "poi", "nombre": "Plaza Puente de Ronda", "no_accesible": false}, "geometry": {"type": "Point", "coordinates": [-4.885367, 36.510833]}}, {"type": "Feature", "properties": {"tipo": "poi", "nombre": "Casa del Corregidor", "no_accesible": false}, "geometry": {"type": "Point", "coordinates": [-4.885361, 36.510108]}}, {"type": "Feature", "properties": {"tipo": "poi", "nombre": "Ayuntamiento (Casa Consistorial)", "no_accesible": false}, "geometry": {"type": "Point", "coordinates": [-4.885229, 36.510499]}}, {"type": "Feature", "properties": {"tipo": "poi", "nombre": "Oficina de Turismo", "no_accesible": false}, "geometry": {"type": "Point", "coordinates": [-4.884736, 36.51037]}}, {"type": "Feature", "properties": {"tipo": "poi", "nombre": "Plaza de los Naranjos", "no_accesible": false}, "geometry": {"type": "Point", "coordinates": [-4.884986, 36.510233]}}, {"type": "Feature", "properties": {"tipo": "poi", "nombre": "Ermita / Capilla de Santiago", "no_accesible": false}, "geometry": {"type": "Point", "coordinates": [-4.885104, 36.509981]}}, {"type": "Feature", "properties": {"tipo": "poi", "nombre": "Iglesia de la Encarnación", "no_accesible": false}, "geometry": {"type": "Point", "coordinates": [-4.88391, 36.509823]}}, {"type": "Feature", "properties": {"tipo": "poi", "nombre": "Capilla del Santo Sepulcro", "no_accesible": true}, "geometry": {"type": "Point", "coordinates": [-4.883025, 36.5103]}}, {"type": "Feature", "properties": {"tipo": "poi", "nombre": "Museo del Grabado Español Contemporáneo", "no_accesible": false}, "geometry": {"type": "Point", "coordinates": [-4.882812, 36.510185]}}, {"type": "Feature", "properties": {"tipo": "poi", "nombre": "Plaza Altamirano", "no_accesible": false}, "geometry": {"type": "Point", "coordinates": [-4.883144, 36.509742]}}, {"type": "Feature", "properties": {"tipo": "poi", "nombre": "Capilla de San Juan de Dios", "no_accesible": true}, "geometry": {"type": "Point", "coordinates": [-4.884145, 36.509423]}}, {"type": "Feature", "properties": {"tipo": "poi", "nombre": "Hospital Real de la Misericordia \"Hospitalillo\"", "no_accesible": false}, "geometry": {"type": "Point", "coordinates": [-4.884078, 36.509253]}}, {"type": "Feature", "properties": {"tipo": "poi", "nombre": "Estatua \"La Bella del Mar\"", "no_accesible": false}, "geometry": {"type": "Point", "coordinates": [-4.884493, 36.508987]}}, {"type": "Feature", "properties": {"tipo": "poi", "nombre": "Plaza de África", "no_accesible": false}, "geometry": {"type": "Point", "coordinates": [-4.8855, 36.509434]}}]}