{"type":"FeatureCollection","actualizado":"2026-10-06T16:11Z","features":[{"type":"Feature","geometry":{"type":"LineString","coordinates":[[-4.971193,36.486572],[-4.94741,36.4991]]},"properties":{"tipo":"Retención","via":"A-7","km":"1050.33 – 1052.9","municipio":"Marbella","gravedad":2,"desde":"2026-10-06T12:48:28.000+02:00"}},{"type":"Feature","geometry":{"type":"Point","coordinates":[-4.996542,36.477448]},"properties":{"tipo":"Vehículo detenido","via":"A-7","km":"1054.59","municipio":"Marbella","gravedad":1,"desde":"2026-10-06T18:02:06.000+02:00","punto":true}},{"type":"Feature","geometry":{"type":"Point","coordinates":[-4.911821,36.51467]},"properties":{"tipo":"Vehículo detenido","via":"A-7","km":"1045.689","municipio":"Marbella","gravedad":1,"desde":"2026-10-06T18:06:56.000+02:00","punto":true}},{"type":"Feature","geometry":{"type":"Point","coordinates":[-4.8871775,36.519394]},"properties":{"tipo":"Vehículo detenido","via":"AP-7","km":"1043.364","municipio":"Marbella","gravedad":1,"desde":"2026-10-06T18:08:03.000+02:00","punto":true}},{"type":"Feature","geometry":{"type":"Point","coordinates":[-4.9593015000000005,36.492836]},"properties":{"tipo":"Retención","via":"A-7","km":"1050.33 – 1052.9","municipio":"Marbella","gravedad":2,"desde":"2026-10-06T12:48:28.000+02:00","punto":true}}]}